satname,norad_id,inclination_deg,eccentricity,mean_motion_rev_per_day,perigee_km,apogee_km,l1,l2
STARLINK-1316,45415,53.1545,0.0006012,15.38520999,446.3767451427775,454.5874767617861,1 45415U 20019BH  26156.48578629  .00056971  00000+0  14750-2 0  9996,2 45415  53.1545  78.9534 0006012  74.1496 286.0171 15.38520999343477
STARLINK-1286,45417,53.046,0.0001354,15.6395728,375.32473042873335,377.1538155234548,1 45417U 20019BK  26157.46019874  .00070498  00000+0  73367-3 0  9999,2 45417  53.0460  61.1345 0001354 185.5905 174.5094 15.63957280344048
STARLINK-1308,45419,53.046,0.0007603,15.65686776,366.13275387085105,376.3958935236651,1 45419U 20019BM  26157.48831798  .00060339  00000+0  58711-3 0  9999,2 45419  53.0460  80.4189 0007603  45.1827 314.9805 15.65686776343520
STARLINK-1329,45531,53.0437,0.0003253,15.73033658,348.04372533420155,352.42120250742846,1 45531U 20025A   26157.29527061  .00092186  00000+0  65848-3 0  9999,2 45531  53.0437   5.1705 0003253 141.0731 219.0521 15.73033658339343
STARLINK-1338,45532,53.0451,0.0003088,15.6771165,363.3689167072753,367.53375686407344,1 45532U 20025B   26157.31500860  .00068698  00000+0  61545-3 0  9992,2 45532  53.0451  11.6554 0003088 101.5371 258.5992 15.67711650339259
STARLINK-1350,45535,53.0732,0.0001383,15.38234009,450.3869176792905,452.27594864790353,1 45535U 20025E   26157.66817401  .00011759  00000+0  31740-3 0  9995,2 45535  53.0732 334.5709 0001383  84.4197 275.6964 15.38234009339844
STARLINK-1362,45538,53.157,0.0003018,15.37159954,452.450258072201,456.5744452208546,1 45538U 20025H   26157.89102360 -.00128192  00000+0 -35203-2 0  9993,2 45538  53.1570  44.7024 0003018 142.9070 217.2143 15.37159954338861
STARLINK-1368,45540,53.1561,0.0004071,15.37378113,451.0846443773926,456.6472611815461,1 45540U 20025K   26157.96918457  .00054292  00000+0  14601-2 0  9992,2 45540  53.1561  44.6988 0004071 132.0728 228.0623 15.37378113338865
STARLINK-1371,45542,53.0442,0.0004312,15.61946699,379.1193242886129,384.94929602649245,1 45542U 20025M   26157.34493471  .00127052  00000+0  14151-2 0  9995,2 45542  53.0442  21.1289 0004312 130.2197 229.9194 15.61946699339126
STARLINK-1372,45543,53.1531,0.0002837,15.37827425,450.5972740553325,454.47299742515224,1 45543U 20025N   26157.40819972  .00061460  00000+0  16263-2 0  9997,2 45543  53.1531  46.8376 0002837 123.4469 236.6806 15.37827425337888
STARLINK-1373,45544,53.046,0.0002845,15.69613459,358.0860271297279,361.9200288056418,1 45544U 20025P   26157.33548479  .00075921  00000+0  62815-3 0  9993,2 45544  53.0460  16.8195 0002845  72.8358 287.2970 15.69613459339182
STARLINK-1327,45555,53.0419,0.0003909,15.67110795,364.53821630777475,369.81170119712715,1 45555U 20025AA  26157.82172856  .00061962  00000+0  56970-3 0  9996,2 45555  53.0419 351.5570 0003909  74.2108 285.9339 15.67110795339575
STARLINK-1356,45564,53.0436,1.41e-05,15.65073865,372.93114172092464,373.12152452691953,1 45564U 20025AK  26157.84208525  .00050508  00000+0  50572-3 0  9997,2 45564  53.0436   4.5970 0000141  48.5363 311.5663 15.65073865339395
STARLINK-1357,45565,53.0455,0.0005137,15.69348264,357.3003267499698,364.22387168450405,1 45565U 20025AL  26157.75038416  .00072237  00000+0  60449-3 0  9995,2 45565  53.0455 321.8142 0005137 118.0243 242.1294 15.69348264339990
STARLINK-1361,45567,53.044,0.0001328,15.62418308,379.7763199136534,381.5714600860374,1 45567U 20025AN  26157.89997192  .00080684  00000+0  88979-3 0  9990,2 45567  53.0440   2.5901 0001328 255.6245 104.4621 15.62418308339433
STARLINK-1366,45569,53.0274,0.0012119,16.21149021,208.4420493854759,224.42597059949549,1 45569U 20025AQ  26157.59053539  .01529523  11853-4  69355-3 0  9998,2 45569  53.0274 305.6215 0012119 307.5543  52.4394 16.21149021340185
STARLINK-1376,45570,53.1562,0.000406,15.38101856,448.9496944031507,454.49554041248575,1 45570U 20025AR  26156.86550071  .00069021  00000+0  18070-2 0  9997,2 45570  53.1562  25.7914 0004060 107.9422 252.2025 15.38101856339032
STARLINK-1320,45572,53.0421,0.0008163,15.86551398,306.498811148158,317.4210634079582,1 45572U 20025AT  26158.00004630  .00145609  00000+0  55576-3 0  9992,2 45572  53.0421 259.7117 0008163 332.4714  79.5775 15.86551398  5921
STARLINK-1321,45573,53.0425,0.0002155,15.63235112,376.8633101020987,379.77534277879477,1 45573U 20025AU  26157.00003472  .00127584  00000+0  13517-2 0  9995,2 45573  53.0425 350.9022 0002155 148.7393 127.1564 15.63235112  5914
STARLINK-1331,45578,53.0469,0.0002729,15.6317084,376.66063859519545,380.34841354012315,1 45578U 20025AZ  26157.93330480  .00083124  00000+0  88968-3 0  9998,2 45578  53.0469 353.2313 0002729 108.3160 251.8150 15.63170840339571
STARLINK-1333,45580,53.1583,0.0002295,15.35149759,458.906243853824,462.0451670856355,1 45580U 20025BB  26157.36495333  .00069349  00000+0  19965-2 0  9990,2 45580  53.1583  24.9242 0002295 141.2767 218.8401 15.35149759339095
STARLINK-1335,45581,53.1568,0.0004967,15.36823841,452.11427240126704,458.90281588481866,1 45581U 20025BC  26157.33150111  .00071393  00000+0  19468-2 0  9990,2 45581  53.1568  21.8244 0004967 120.8247 239.3246 15.36823841339122
STARLINK-1337,45582,53.0458,0.0004608,15.74209761,343.78195070277616,349.979727143128,1 45582U 20025BD  26157.92794106  .00090403  00000+0  61405-3 0  9996,2 45582  53.0458 342.6924 0004608 106.1209 254.0317 15.74209761339704
STARLINK-1347,45586,53.0382,0.000216,15.6844892,361.88173780861143,364.7940549638497,1 45586U 20025BH  26157.72319886  .00069733  00000+0  60614-3 0  9999,2 45586  53.0382 314.1465 0002160 131.1358 228.9844 15.68448920340085
STARLINK-1364,45589,53.0431,6.08e-05,15.68965631,361.44790000452304,362.26748335903176,1 45589U 20025BL  26155.75687397  .00053529  00000+0  45760-3 0  9999,2 45589  53.0431   0.5592 0000608 140.0658 220.0403 15.68965631339262
STARLINK-1365,45590,53.0454,0.0002675,15.58949014,388.8869087113526,392.5082352073514,1 45590U 20025BM  26158.00004630  .00105984  00000+0  13287-2 0  9996,2 45590  53.0454  23.5637 0002675 100.8462  38.7886 15.58949014  5958
STARLINK-1443,45660,53.1332,0.0002893,15.32381092,466.72965448552804,470.69124041862415,1 45660U 20035D   26157.33348380  .00029532  00000+0  93942-3 0  9994,2 45660  53.1332  13.7624 0002893  96.6594 126.6964 15.32381092  5872
STARLINK-1446,45663,53.0228,0.0002269,15.47555068,422.33746394362424,425.42421964022924,1 45663U 20035G   26157.62595849  .00037123  00000+0  71460-3 0  9999,2 45663  53.0228 295.5392 0002269 182.5498 177.5498 15.47555068333429
STARLINK-1448,45665,53.0446,0.0004772,15.68135323,361.0191828834004,367.4541042888386,1 45665U 20035J   26157.94953423  .00063904  00000+0  56323-3 0  9999,2 45665  53.0446 337.0857 0004772  95.8397 264.3163 15.68135323332868
STARLINK-1451,45668,53.0526,0.0002299,15.14145037,521.9886721371786,525.1620794875771,1 45668U 20035M   26156.91453930  .00038500  00000+0  20927-2 0  9990,2 45668  53.0526  26.4318 0002299  98.7126 261.4127 15.14145037332092
STARLINK-1452,45669,53.0257,0.0003445,15.58734301,388.9870770141397,393.6512323047,1 45669U 20035N   26157.69686293  .00141072  00000+0  17729-2 0  9992,2 45669  53.0257 313.3717 0003445 300.6415  59.4257 15.58734301333181
STARLINK-1453,45670,53.0405,0.0001504,15.68623812,361.82295569096095,363.8506406094448,1 45670U 20035P   26157.91762850  .00071028  00000+0  61283-3 0  9991,2 45670  53.0405 297.5366 0001504 276.1049  83.9795 15.68623812333314
STARLINK-1454,45671,53.0436,0.000217,15.66318683,367.98468122735085,370.91313351114877,1 45671U 20035Q   26155.72023273  .00053552  00000+0  50968-3 0  9998,2 45671  53.0436 349.2680 0002170  48.8836 311.2366 15.66318683332495
STARLINK-1456,45673,53.0426,0.0004026,15.65509844,369.05533977751656,374.49036719154265,1 45673U 20035S   26157.66494724  .00057251  00000+0  56204-3 0  9997,2 45673  53.0426 334.2737 0004026 152.1608 207.9623 15.65509844332892
STARLINK-1458,45675,53.0458,0.0001624,15.56834883,395.7238366024076,397.92434396453154,1 45675U 20035U   26157.68207759  .00085669  00000+0  11669-2 0  9990,2 45675  53.0458 348.7170 0001624  78.8600 281.2594 15.56834883332657
STARLINK-1460,45676,53.1586,0.0003012,15.34975524,458.93325007067506,463.0531421007963,1 45676U 20035V   26157.86129721  .00046962  00000+0  13671-2 0  9991,2 45676  53.1586   9.7884 0003012 153.7062 206.4095 15.34975524332384
STARLINK-1392,45677,53.1535,0.0002288,15.38226843,449.79005647303893,452.9152309339979,1 45677U 20035W   26157.29657544  .00072195  00000+0  18814-2 0  9999,2 45677  53.1535  11.0993 0002288 169.2728 190.8325 15.38226843332357
STARLINK-1394,45679,53.0415,0.0004221,15.65199291,369.8161484345019,375.51517604196306,1 45679U 20035Y   26157.73161993  .00063209  00000+0  62720-3 0  9990,2 45679  53.0415 324.2276 0004221 166.0257 194.0875 15.65199291333037
STARLINK-1402,45685,53.0428,0.0004732,15.57695705,391.12312019322053,397.53258092779106,1 45685U 20035AE  26157.73310079  .00051460  00000+0  68410-3 0  9996,2 45685  53.0428 314.9804 0004732 184.1450 175.9523 15.57695705333179
STARLINK-1404,45686,53.1573,0.0003505,15.44495012,430.47502845813233,435.2495389560099,1 45686U 20035AF  26157.81428152  .00074820  00000+0  15825-2 0  9994,2 45686  53.1573 350.3566 0003505 176.7498 183.3532 15.44495012332691
STARLINK-1413,45689,53.1576,0.0002016,15.34932383,459.74254863137776,462.50013759532067,1 45689U 20035AJ  26157.24903625  .00074511  00000+0  21578-2 0  9996,2 45689  53.1576 357.2991 0002016 188.2214 171.8756 15.34932383332466
STARLINK-1417,45693,53.0517,0.0005283,15.16740035,512.0589989317814,519.3430281769033,1 45693U 20035AN  26156.81918234  .00035570  00000+0  17981-2 0  9990,2 45693  53.0517  13.5652 0005283 126.1419 234.0064 15.16740035332250
STARLINK-1420,45695,53.0463,0.0003546,15.68078345,362.00906712135566,366.7908743409989,1 45695U 20035AQ  26157.68388364  .00068883  00000+0  60791-3 0  9994,2 45695  53.0463 307.6658 0003546 121.8527 238.2835 15.68078345333266
